CTC2_L_00051001-01
1 15748U 22153RI  26070.40842593  .00000000  00000+0  00000-0 0  9997
2 15748  65.0000   0.0000 0000000   0.0000   0.0000 15.48880433    13
CTC2_L_00051001-02
1 15749U 26460AF  26070.40842593  .00000000  00000+0  00000-0 0  9993
2 15749  65.0000   0.0000 0000000   0.0000  90.0000 15.48880433    13
CTC2_L_00051001-03
1 15750U 26370YV  26070.40842593  .00000000  00000+0  00000-0 0  9995
2 15750  65.0000   0.0000 0000000   0.0000 180.0000 15.48880433    15
CTC2_L_00051001-04
1 15751U 25543FK  26070.40842593  .00000000  00000+0  00000-0 0  9997
2 15751  65.0000   0.0000 0000000   0.0000 270.0000 15.48880433    16
CTC2_L_00051002-01
1 15752U 25591VA  26070.40842593  .00000000  00000+0  00000-0 0  9991
2 15752  65.0000  12.0000 0000000   0.0000  12.0000 15.48880433    14
CTC2_L_00051002-02
1 15753U 26557IV  26070.40842593  .00000000  00000+0  00000-0 0  9995
2 15753  65.0000  12.0000 0000000   0.0000 102.0000 15.48880433    15
CTC2_L_00051002-03
1 15754U 22037SU  26070.40842593  .00000000  00000+0  00000-0 0  9995
2 15754  65.0000  12.0000 0000000   0.0000 192.0000 15.48880433    15
CTC2_L_00051002-04
1 15755U 23259SN  26070.40842593  .00000000  00000+0  00000-0 0  9993
2 15755  65.0000  12.0000 0000000   0.0000 282.0000 15.48880433    16
CTC2_L_00051003-01
1 15756U 22180GX  26070.40842593  .00000000  00000+0  00000-0 0  9996
2 15756  65.0000  24.0000 0000000   0.0000  24.0000 15.48880433    14
CTC2_L_00051003-02
1 15757U 24524Q   26070.40842593  .00000000  00000+0  00000-0 0  9991
2 15757  65.0000  24.0000 0000000   0.0000 114.0000 15.48880433    15
CTC2_L_00051003-03
1 15758U 22527RB  26070.40842593  .00000000  00000+0  00000-0 0  9993
2 15758  65.0000  24.0000 0000000   0.0000 204.0000 15.48880433    16
CTC2_L_00051003-04
1 15759U 26837AB  26070.40842593  .00000000  00000+0  00000-0 0  9992
2 15759  65.0000  24.0000 0000000   0.0000 294.0000 15.48880433    16
CTC2_L_00051004-01
1 15760U 23798AE  26070.40842593  .00000000  00000+0  00000-0 0  9997
2 15760  65.0000  36.0000 0000000   0.0000  36.0000 15.48880433    15
CTC2_L_00051004-02
1 15761U 25440FJ  26070.40842593  .00000000  00000+0  00000-0 0  9994
2 15761  65.0000  36.0000 0000000   0.0000 126.0000 15.48880433    16
CTC2_L_00051004-03
1 15762U 26195HG  26070.40842593  .00000000  00000+0  00000-0 0  9993
2 15762  65.0000  36.0000 0000000   0.0000 216.0000 15.48880433    17
CTC2_L_00051004-04
1 15763U 22101OC  26070.40842593  .00000000  00000+0  00000-0 0  9997
2 15763  65.0000  36.0000 0000000   0.0000 306.0000 15.48880433    18
CTC2_L_00051005-01
1 15764U 22106AC  26070.40842593  .00000000  00000+0  00000-0 0  9993
2 15764  65.0000  48.0000 0000000   0.0000  48.0000 15.48880433    15
CTC2_L_00051005-02
1 15765U 24150NN  26070.40842593  .00000000  00000+0  00000-0 0  9995
2 15765  65.0000  48.0000 0000000   0.0000 138.0000 15.48880433    16
CTC2_L_00051005-03
1 15766U 25135LG  26070.40842593  .00000000  00000+0  00000-0 0  9990
2 15766  65.0000  48.0000 0000000   0.0000 228.0000 15.48880433    17
CTC2_L_00051005-04
1 15767U 22249TT  26070.40842593  .00000000  00000+0  00000-0 0  9994
2 15767  65.0000  48.0000 0000000   0.0000 318.0000 15.48880433    18
CTC2_L_00051006-01
1 15768U 23122NG  26070.40842593  .00000000  00000+0  00000-0 0  9996
2 15768  65.0000  60.0000 0000000   0.0000  60.0000 15.48880433    17
CTC2_L_00051006-02
1 15769U 22896IF  26070.40842593  .00000000  00000+0  00000-0 0  9994
2 15769  65.0000  60.0000 0000000   0.0000 150.0000 15.48880433    18
CTC2_L_00051006-03
1 15770U 23995CY  26070.40842593  .00000000  00000+0  00000-0 0  9997
2 15770  65.0000  60.0000 0000000   0.0000 240.0000 15.48880433    10
CTC2_L_00051006-04
1 15771U 22152TV  26070.40842593  .00000000  00000+0  00000-0 0  9992
2 15771  65.0000  60.0000 0000000   0.0000 330.0000 15.48880433    11
CTC2_L_00051007-01
1 15772U 22390AD  26070.40842593  .00000000  00000+0  00000-0 0  9997
2 15772  65.0000  72.0000 0000000   0.0000  72.0000 15.48880433    18
CTC2_L_00051007-02
1 15773U 26123QU  26070.40842593  .00000000  00000+0  00000-0 0  9996
2 15773  65.0000  72.0000 0000000   0.0000 162.0000 15.48880433    19
CTC2_L_00051007-03
1 15774U 24477MF  26070.40842593  .00000000  00000+0  00000-0 0  9997
2 15774  65.0000  72.0000 0000000   0.0000 252.0000 15.48880433    10
CTC2_L_00051007-04
1 15775U 25963BY  26070.40842593  .00000000  00000+0  00000-0 0  9999
2 15775  65.0000  72.0000 0000000   0.0000 342.0000 15.48880433    11
CTC2_L_00051008-01
1 15776U 23452XI  26070.40842593  .00000000  00000+0  00000-0 0  9991
2 15776  65.0000  84.0000 0000000   0.0000  84.0000 15.48880433    18
CTC2_L_00051008-02
1 15777U 25390ZI  26070.40842593  .00000000  00000+0  00000-0 0  9995
2 15777  65.0000  84.0000 0000000   0.0000 174.0000 15.48880433    19
CTC2_L_00051008-03
1 15778U 25010BM  26070.40842593  .00000000  00000+0  00000-0 0  9995
2 15778  65.0000  84.0000 0000000   0.0000 264.0000 15.48880433    10
CTC2_L_00051008-04
1 15779U 23690RX  26070.40842593  .00000000  00000+0  00000-0 0  9998
2 15779  65.0000  84.0000 0000000   0.0000 354.0000 15.48880433    11
CTC2_L_00051009-01
1 15780U 26570SF  26070.40842593  .00000000  00000+0  00000-0 0  9990
2 15780  65.0000  96.0000 0000000   0.0000  96.0000 15.48880433    19
CTC2_L_00051009-02
1 15781U 23142RE  26070.40842593  .00000000  00000+0  00000-0 0  9993
2 15781  65.0000  96.0000 0000000   0.0000 186.0000 15.48880433    10
CTC2_L_00051009-03
1 15782U 23178TH  26070.40842593  .00000000  00000+0  00000-0 0  9993
2 15782  65.0000  96.0000 0000000   0.0000 276.0000 15.48880433    11
CTC2_L_00051009-04
1 15783U 25304DK  26070.40842593  .00000000  00000+0  00000-0 0  9997
2 15783  65.0000  96.0000 0000000   0.0000   6.0000 15.48880433    13
CTC2_L_00051010-01
1 15784U 25406AH  26070.40842593  .00000000  00000+0  00000-0 0  9991
2 15784  65.0000 108.0000 0000000   0.0000 108.0000 15.48880433    11
CTC2_L_00051010-02
1 15785U 23651NI  26070.40842593  .00000000  00000+0  00000-0 0  9992
2 15785  65.0000 108.0000 0000000   0.0000 198.0000 15.48880433    11
CTC2_L_00051010-03
1 15786U 22159RI  26070.40842593  .00000000  00000+0  00000-0 0  9995
2 15786  65.0000 108.0000 0000000   0.0000 288.0000 15.48880433    12
CTC2_L_00051010-04
1 15787U 25511WB  26070.40842593  .00000000  00000+0  00000-0 0  9991
2 15787  65.0000 108.0000 0000000   0.0000  18.0000 15.48880433    14
CTC2_L_00051011-01
1 15788U 22256UQ  26070.40842593  .00000000  00000+0  00000-0 0  9995
2 15788  65.0000 120.0000 0000000   0.0000 120.0000 15.48880433    13
CTC2_L_00051011-02
1 15789U 24313IG  26070.40842593  .00000000  00000+0  00000-0 0  9992
2 15789  65.0000 120.0000 0000000   0.0000 210.0000 15.48880433    14
CTC2_L_00051011-03
1 15790U 25125FE  26070.40842593  .00000000  00000+0  00000-0 0  9996
2 15790  65.0000 120.0000 0000000   0.0000 300.0000 15.48880433    16
CTC2_L_00051011-04
1 15791U 22163WO  26070.40842593  .00000000  00000+0  00000-0 0  9996
2 15791  65.0000 120.0000 0000000   0.0000  30.0000 15.48880433    17
CTC2_L_00051012-01
1 15792U 24426FU  26070.40842593  .00000000  00000+0  00000-0 0  9991
2 15792  65.0000 132.0000 0000000   0.0000 132.0000 15.48880433    14
CTC2_L_00051012-02
1 15793U 26570OM  26070.40842593  .00000000  00000+0  00000-0 0  9994
2 15793  65.0000 132.0000 0000000   0.0000 222.0000 15.48880433    15
CTC2_L_00051012-03
1 15794U 22919PC  26070.40842593  .00000000  00000+0  00000-0 0  9998
2 15794  65.0000 132.0000 0000000   0.0000 312.0000 15.48880433    16
CTC2_L_00051012-04
1 15795U 24773BQ  26070.40842593  .00000000  00000+0  00000-0 0  9999
2 15795  65.0000 132.0000 0000000   0.0000  42.0000 15.48880433    17
CTC2_L_00051013-01
1 15796U 24821DH  26070.40842593  .00000000  00000+0  00000-0 0  9994
2 15796  65.0000 144.0000 0000000   0.0000 144.0000 15.48880433    14
CTC2_L_00051013-02
1 15797U 26967HX  26070.40842593  .00000000  00000+0  00000-0 0  9998
2 15797  65.0000 144.0000 0000000   0.0000 234.0000 15.48880433    15
CTC2_L_00051013-03
1 15798U 24567WT  26070.40842593  .00000000  00000+0  00000-0 0  9993
2 15798  65.0000 144.0000 0000000   0.0000 324.0000 15.48880433    16
CTC2_L_00051013-04
1 15799U 23771WK  26070.40842593  .00000000  00000+0  00000-0 0  9990
2 15799  65.0000 144.0000 0000000   0.0000  54.0000 15.48880433    17
CTC2_L_00051014-01
1 15800U 24162QL  26070.40842593  .00000000  00000+0  00000-0 0  9998
2 15800  65.0000 156.0000 0000000   0.0000 156.0000 15.48880433    16
CTC2_L_00051014-02
1 15801U 26081TS  26070.40842593  .00000000  00000+0  00000-0 0  9991
2 15801  65.0000 156.0000 0000000   0.0000 246.0000 15.48880433    17
CTC2_L_00051014-03
1 15802U 23237WY  26070.40842593  .00000000  00000+0  00000-0 0  9992
2 15802  65.0000 156.0000 0000000   0.0000 336.0000 15.48880433    18
CTC2_L_00051014-04
1 15803U 22308FF  26070.40842593  .00000000  00000+0  00000-0 0  9991
2 15803  65.0000 156.0000 0000000   0.0000  66.0000 15.48880433    19
CTC2_L_00051015-01
1 15804U 24885NI  26070.40842593  .00000000  00000+0  00000-0 0  9994
2 15804  65.0000 168.0000 0000000   0.0000 168.0000 15.48880433    16
CTC2_L_00051015-02
1 15805U 22286NF  26070.40842593  .00000000  00000+0  00000-0 0  9998
2 15805  65.0000 168.0000 0000000   0.0000 258.0000 15.48880433    17
CTC2_L_00051015-03
1 15806U 22663IX  26070.40842593  .00000000  00000+0  00000-0 0  9998
2 15806  65.0000 168.0000 0000000   0.0000 348.0000 15.48880433    18
CTC2_L_00051015-04
1 15807U 23324WJ  26070.40842593  .00000000  00000+0  00000-0 0  9994
2 15807  65.0000 168.0000 0000000   0.0000  78.0000 15.48880433    19
CTC2_L_00051016-01
1 15808U 24737DB  26070.40842593  .00000000  00000+0  00000-0 0  9994
2 15808  65.0000 180.0000 0000000   0.0000 180.0000 15.48880433    18
CTC2_L_00051016-02
1 15809U 23079BH  26070.40842593  .00000000  00000+0  00000-0 0  9993
2 15809  65.0000 180.0000 0000000   0.0000 270.0000 15.48880433    19
